[{"OBJECT_NAME":"SES-7 (PROTOSTAR 2)","OBJECT_ID":"2009-027A","EPOCH":"2023-09-23T13:37:31.499616","MEAN_MOTION":1.00269842,"ECCENTRICITY":0.0001658,"INCLINATION":0.0514,"RA_OF_ASC_NODE":79.1412,"ARG_OF_PERICENTER":145.538,"MEAN_ANOMALY":90.1335,"EPHEMERIS_TYPE":0,"CLASSIFICATION_TYPE":"U","NORAD_CAT_ID":34941,"ELEMENT_SET_NO":999,"REV_AT_EPOCH":5261,"BSTAR":0,"MEAN_MOTION_DOT":-3.48e-6,"MEAN_MOTION_DDOT":0},{"OBJECT_NAME":"MEASAT-3A","OBJECT_ID":"2009-032A","EPOCH":"2023-09-24T02:59:28.017312","MEAN_MOTION":1.00272607,"ECCENTRICITY":0.0003065,"INCLINATION":0.0375,"RA_OF_ASC_NODE":223.2365,"ARG_OF_PERICENTER":332.5234,"MEAN_ANOMALY":303.3391,"EPHEMERIS_TYPE":0,"CLASSIFICATION_TYPE":"U","NORAD_CAT_ID":35362,"ELEMENT_SET_NO":999,"REV_AT_EPOCH":5223,"BSTAR":0,"MEAN_MOTION_DOT":-2.48e-6,"MEAN_MOTION_DDOT":0},{"OBJECT_NAME":"GOES 14","OBJECT_ID":"2009-033A","EPOCH":"2023-09-24T04:59:41.327808","MEAN_MOTION":1.0027144,"ECCENTRICITY":0.0004065,"INCLINATION":0.3879,"RA_OF_ASC_NODE":265.3965,"ARG_OF_PERICENTER":229.8537,"MEAN_ANOMALY":193.9046,"EPHEMERIS_TYPE":0,"CLASSIFICATION_TYPE":"U","NORAD_CAT_ID":35491,"ELEMENT_SET_NO":999,"REV_AT_EPOCH":5215,"BSTAR":0,"MEAN_MOTION_DOT":-7.2e-7,"MEAN_MOTION_DDOT":0},{"OBJECT_NAME":"FM-5","OBJECT_ID":"2009-034A","EPOCH":"2023-09-23T12:35:42.765792","MEAN_MOTION":1.00270829,"ECCENTRICITY":5.44e-5,"INCLINATION":0.0219,"RA_OF_ASC_NODE":256.823,"ARG_OF_PERICENTER":250.0064,"MEAN_ANOMALY":318.0793,"EPHEMERIS_TYPE":0,"CLASSIFICATION_TYPE":"U","NORAD_CAT_ID":35493,"ELEMENT_SET_NO":999,"REV_AT_EPOCH":3663,"BSTAR":0,"MEAN_MOTION_DOT":-2.03e-6,"MEAN_MOTION_DDOT":0},{"OBJECT_NAME":"TERRESTAR-1","OBJECT_ID":"2009-035A","EPOCH":"2023-09-24T04:57:14.980032","MEAN_MOTION":1.00271271,"ECCENTRICITY":0.0002817,"INCLINATION":3.9343,"RA_OF_ASC_NODE":45.4282,"ARG_OF_PERICENTER":143.317,"MEAN_ANOMALY":137.3564,"EPHEMERIS_TYPE":0,"CLASSIFICATION_TYPE":"U","NORAD_CAT_ID":35496,"ELEMENT_SET_NO":999,"REV_AT_EPOCH":5216,"BSTAR":0,"MEAN_MOTION_DOT":-6.0e-7,"MEAN_MOTION_DDOT":0},{"OBJECT_NAME":"ASIASAT 5","OBJECT_ID":"2009-042A","EPOCH":"2023-09-23T14:10:32.001024","MEAN_MOTION":1.00269836,"ECCENTRICITY":0.0001416,"INCLINATION":0.0253,"RA_OF_ASC_NODE":236.3965,"ARG_OF_PERICENTER":296.7938,"MEAN_ANOMALY":142.1156,"EPHEMERIS_TYPE":0,"CLASSIFICATION_TYPE":"U","NORAD_CAT_ID":35696,"ELEMENT_SET_NO":999,"REV_AT_EPOCH":5170,"BSTAR":0,"MEAN_MOTION_DOT":-3.11e-6,"MEAN_MOTION_DDOT":0},{"OBJECT_NAME":"JCSAT-12 (JCSAT-RA)","OBJECT_ID":"2009-044A","EPOCH":"2023-09-24T03:56:42.558144","MEAN_MOTION":1.00272282,"ECCENTRICITY":0.0001806,"INCLINATION":0.048,"RA_OF_ASC_NODE":102.9285,"ARG_OF_PERICENTER":23.0135,"MEAN_ANOMALY":68.0454,"EPHEMERIS_TYPE":0,"CLASSIFICATION_TYPE":"U","NORAD_CAT_ID":35755,"ELEMENT_SET_NO":999,"REV_AT_EPOCH":5166,"BSTAR":0,"MEAN_MOTION_DOT":-3.33e-6,"MEAN_MOTION_DDOT":0},{"OBJECT_NAME":"OPTUS D3","OBJECT_ID":"2009-044B","EPOCH":"2023-09-24T03:36:39.014784","MEAN_MOTION":1.00272734,"ECCENTRICITY":0.0002487,"INCLINATION":0.0504,"RA_OF_ASC_NODE":351.3601,"ARG_OF_PERICENTER":180.9554,"MEAN_ANOMALY":40.5752,"EPHEMERIS_TYPE":0,"CLASSIFICATION_TYPE":"U","NORAD_CAT_ID":35756,"ELEMENT_SET_NO":999,"REV_AT_EPOCH":5163,"BSTAR":0,"MEAN_MOTION_DOT":-1.53e-6,"MEAN_MOTION_DDOT":0},{"OBJECT_NAME":"NIMIQ 5","OBJECT_ID":"2009-050A","EPOCH":"2023-09-23T15:01:09.616800","MEAN_MOTION":1.00269541,"ECCENTRICITY":0.0002862,"INCLINATION":0.0225,"RA_OF_ASC_NODE":169.1475,"ARG_OF_PERICENTER":10.1225,"MEAN_ANOMALY":335.5407,"EPHEMERIS_TYPE":0,"CLASSIFICATION_TYPE":"U","NORAD_CAT_ID":35873,"ELEMENT_SET_NO":999,"REV_AT_EPOCH":5134,"BSTAR":0,"MEAN_MOTION_DOT":-2.6e-6,"MEAN_MOTION_DDOT":0},{"OBJECT_NAME":"AMAZONAS 2","OBJECT_ID":"2009-054A","EPOCH":"2023-09-24T02:40:42.651264","MEAN_MOTION":1.00270416,"ECCENTRICITY":0.0004942,"INCLINATION":0.0344,"RA_OF_ASC_NODE":129.4246,"ARG_OF_PERICENTER":37.9723,"MEAN_ANOMALY":174.5016,"EPHEMERIS_TYPE":0,"CLASSIFICATION_TYPE":"U","NORAD_CAT_ID":35942,"ELEMENT_SET_NO":999,"REV_AT_EPOCH":5117,"BSTAR":0,"MEAN_MOTION_DOT":-2.88e-6,"MEAN_MOTION_DDOT":0},{"OBJECT_NAME":"COMSATBW-1","OBJECT_ID":"2009-054B","EPOCH":"2023-09-23T13:31:42.621600","MEAN_MOTION":1.00269204,"ECCENTRICITY":0.000285,"INCLINATION":0.0433,"RA_OF_ASC_NODE":99.957,"ARG_OF_PERICENTER":97.0844,"MEAN_ANOMALY":71.0881,"EPHEMERIS_TYPE":0,"CLASSIFICATION_TYPE":"U","NORAD_CAT_ID":35943,"ELEMENT_SET_NO":999,"REV_AT_EPOCH":5129,"BSTAR":0,"MEAN_MOTION_DOT":2.1e-7,"MEAN_MOTION_DDOT":0},{"OBJECT_NAME":"NSS-12","OBJECT_ID":"2009-058A","EPOCH":"2023-09-24T01:25:11.844768","MEAN_MOTION":1.00269727,"ECCENTRICITY":0.0002851,"INCLINATION":0.0143,"RA_OF_ASC_NODE":154.6722,"ARG_OF_PERICENTER":31.2644,"MEAN_ANOMALY":255.0011,"EPHEMERIS_TYPE":0,"CLASSIFICATION_TYPE":"U","NORAD_CAT_ID":36032,"ELEMENT_SET_NO":999,"REV_AT_EPOCH":5091,"BSTAR":0,"MEAN_MOTION_DOT":6.6e-7,"MEAN_MOTION_DDOT":0},{"OBJECT_NAME":"THOR 6","OBJECT_ID":"2009-058B","EPOCH":"2023-09-24T01:08:31.851168","MEAN_MOTION":1.00270489,"ECCENTRICITY":0.0001862,"INCLINATION":0.008,"RA_OF_ASC_NODE":150.3095,"ARG_OF_PERICENTER":40.622,"MEAN_ANOMALY":187.9932,"EPHEMERIS_TYPE":0,"CLASSIFICATION_TYPE":"U","NORAD_CAT_ID":36033,"ELEMENT_SET_NO":999,"REV_AT_EPOCH":5097,"BSTAR":0,"MEAN_MOTION_DOT":-1.5e-7,"MEAN_MOTION_DDOT":0},{"OBJECT_NAME":"INTELSAT 14 (IS-14)","OBJECT_ID":"2009-064A","EPOCH":"2023-09-23T11:10:24.485088","MEAN_MOTION":1.00271018,"ECCENTRICITY":0.0002406,"INCLINATION":0.0166,"RA_OF_ASC_NODE":136.9025,"ARG_OF_PERICENTER":58.7158,"MEAN_ANOMALY":289.0564,"EPHEMERIS_TYPE":0,"CLASSIFICATION_TYPE":"U","NORAD_CAT_ID":36097,"ELEMENT_SET_NO":999,"REV_AT_EPOCH":5060,"BSTAR":0,"MEAN_MOTION_DOT":-2.76e-6,"MEAN_MOTION_DDOT":0},{"OBJECT_NAME":"EUTELSAT 36B","OBJECT_ID":"2009-065A","EPOCH":"2023-09-23T18:26:22.221600","MEAN_MOTION":1.00272661,"ECCENTRICITY":0.0005157,"INCLINATION":0.0676,"RA_OF_ASC_NODE":5.5283,"ARG_OF_PERICENTER":178.1623,"MEAN_ANOMALY":131.1492,"EPHEMERIS_TYPE":0,"CLASSIFICATION_TYPE":"U","NORAD_CAT_ID":36101,"ELEMENT_SET_NO":999,"REV_AT_EPOCH":5081,"BSTAR":0,"MEAN_MOTION_DOT":1.51e-6,"MEAN_MOTION_DDOT":0},{"OBJECT_NAME":"INTELSAT 15 (IS-15)","OBJECT_ID":"2009-067A","EPOCH":"2023-09-23T13:23:42.491616","MEAN_MOTION":1.00271872,"ECCENTRICITY":0.0002332,"INCLINATION":0.0179,"RA_OF_ASC_NODE":286.9661,"ARG_OF_PERICENTER":245.2559,"MEAN_ANOMALY":116.0097,"EPHEMERIS_TYPE":0,"CLASSIFICATION_TYPE":"U","NORAD_CAT_ID":36106,"ELEMENT_SET_NO":999,"REV_AT_EPOCH":3122,"BSTAR":0,"MEAN_MOTION_DOT":-1.89e-6,"MEAN_MOTION_DDOT":0},{"OBJECT_NAME":"WGS F3 (USA 211)","OBJECT_ID":"2009-068A","EPOCH":"2023-09-23T11:11:02.078592","MEAN_MOTION":1.00268461,"ECCENTRICITY":4.41e-5,"INCLINATION":0.1937,"RA_OF_ASC_NODE":90.968,"ARG_OF_PERICENTER":304.5321,"MEAN_ANOMALY":91.5425,"EPHEMERIS_TYPE":0,"CLASSIFICATION_TYPE":"U","NORAD_CAT_ID":36108,"ELEMENT_SET_NO":999,"REV_AT_EPOCH":3660,"BSTAR":0,"MEAN_MOTION_DOT":-2.71e-6,"MEAN_MOTION_DDOT":0},{"OBJECT_NAME":"DIRECTV 12","OBJECT_ID":"2009-075A","EPOCH":"2023-09-24T02:53:24.159264","MEAN_MOTION":1.0027124,"ECCENTRICITY":7.26e-5,"INCLINATION":0.0429,"RA_OF_ASC_NODE":5.4226,"ARG_OF_PERICENTER":108.6688,"MEAN_ANOMALY":189.2581,"EPHEMERIS_TYPE":0,"CLASSIFICATION_TYPE":"U","NORAD_CAT_ID":36131,"ELEMENT_SET_NO":999,"REV_AT_EPOCH":5038,"BSTAR":0,"MEAN_MOTION_DOT":-1.09e-6,"MEAN_MOTION_DDOT":0},{"OBJECT_NAME":"BEIDOU-2 G1","OBJECT_ID":"2010-001A","EPOCH":"2023-09-23T12:03:39.953664","MEAN_MOTION":1.00272408,"ECCENTRICITY":0.0003213,"INCLINATION":2.0495,"RA_OF_ASC_NODE":52.6286,"ARG_OF_PERICENTER":318.7433,"MEAN_ANOMALY":312.1163,"EPHEMERIS_TYPE":0,"CLASSIFICATION_TYPE":"U","NORAD_CAT_ID":36287,"ELEMENT_SET_NO":999,"REV_AT_EPOCH":5016,"BSTAR":0,"MEAN_MOTION_DOT":-2.82e-6,"MEAN_MOTION_DDOT":0},{"OBJECT_NAME":"RADUGA-1M 2","OBJECT_ID":"2010-002A","EPOCH":"2023-09-24T03:16:20.976960","MEAN_MOTION":1.00273283,"ECCENTRICITY":0.0003957,"INCLINATION":1.0234,"RA_OF_ASC_NODE":92.186,"ARG_OF_PERICENTER":79.3742,"MEAN_ANOMALY":325.2601,"EPHEMERIS_TYPE":0,"CLASSIFICATION_TYPE":"U","NORAD_CAT_ID":36358,"ELEMENT_SET_NO":999,"REV_AT_EPOCH":5001,"BSTAR":0,"MEAN_MOTION_DOT":-1.9e-6,"MEAN_MOTION_DDOT":0},{"OBJECT_NAME":"SDO","OBJECT_ID":"2010-005A","EPOCH":"2023-09-24T01:49:42.680352","MEAN_MOTION":1.00274162,"ECCENTRICITY":0.0001749,"INCLINATION":32.5713,"RA_OF_ASC_NODE":101.7931,"ARG_OF_PERICENTER":198.3602,"MEAN_ANOMALY":348.1308,"EPHEMERIS_TYPE":0,"CLASSIFICATION_TYPE":"U","NORAD_CAT_ID":36395,"ELEMENT_SET_NO":999,"REV_AT_EPOCH":5003,"BSTAR":0,"MEAN_MOTION_DOT":-6.5e-7,"MEAN_MOTION_DDOT":0},{"OBJECT_NAME":"INTELSAT 16 (IS-16)","OBJECT_ID":"2010-006A","EPOCH":"2023-09-24T02:48:42.786432","MEAN_MOTION":1.00268898,"ECCENTRICITY":0.0002153,"INCLINATION":0.0107,"RA_OF_ASC_NODE":170.1338,"ARG_OF_PERICENTER":12.8998,"MEAN_ANOMALY":145.6332,"EPHEMERIS_TYPE":0,"CLASSIFICATION_TYPE":"U","NORAD_CAT_ID":36397,"ELEMENT_SET_NO":999,"REV_AT_EPOCH":4972,"BSTAR":0,"MEAN_MOTION_DOT":-2.5e-6,"MEAN_MOTION_DDOT":0},{"OBJECT_NAME":"EWS-G2 (GOES 15)","OBJECT_ID":"2010-008A","EPOCH":"2023-09-23T13:46:08.079168","MEAN_MOTION":0.99976571,"ECCENTRICITY":0.0004726,"INCLINATION":0.3689,"RA_OF_ASC_NODE":274.9678,"ARG_OF_PERICENTER":308.4511,"MEAN_ANOMALY":90.25,"EPHEMERIS_TYPE":0,"CLASSIFICATION_TYPE":"U","NORAD_CAT_ID":36411,"ELEMENT_SET_NO":999,"REV_AT_EPOCH":4964,"BSTAR":0,"MEAN_MOTION_DOT":-2.9e-6,"MEAN_MOTION_DDOT":0},{"OBJECT_NAME":"ECHOSTAR 14","OBJECT_ID":"2010-010A","EPOCH":"2023-09-24T02:54:50.802048","MEAN_MOTION":1.00271749,"ECCENTRICITY":0.0002104,"INCLINATION":0.0191,"RA_OF_ASC_NODE":209.7177,"ARG_OF_PERICENTER":334.2339,"MEAN_ANOMALY":103.5806,"EPHEMERIS_TYPE":0,"CLASSIFICATION_TYPE":"U","NORAD_CAT_ID":36499,"ELEMENT_SET_NO":999,"REV_AT_EPOCH":4953,"BSTAR":0,"MEAN_MOTION_DOT":-6.0e-8,"MEAN_MOTION_DDOT":0}]